DELTA 2 R/B             
1 25876U 99041E   26062.07041023  .00001695  00000+0  31034-3 0  9998
2 25876  51.7651 327.7179 0502356 328.8923  28.3138 14.11813362362092
HELIOS 1B               
1 25977U 99064A   26062.12241493  .00002265  00000+0  25521-3 0  9992
2 25977  98.1704 324.1726 0002519  83.9486 276.2016 14.87664420684285
TERRA                   
1 25994U 99068A   26062.13367142  .00000513  00000+0  11359-3 0  9994
2 25994  97.9607 115.8185 0002257 167.8691 217.2698 14.61006268394120
SL-16 R/B               
1 26070U 00006B   26062.15929306  .00000240  00000+0  14621-3 0  9994
2 26070  71.0013 111.5695 0017234 199.1869 160.8607 14.15824224347631
TITAN 4B R/B            
1 26474U 00047B   26062.13684625  .00004858  00000+0  30570-3 0  9997
2 26474  67.9882  58.9354 0037956  43.1985 317.2131 15.09484626391926
ENVISAT                 
1 27386U 02009A   26061.85866175  .00000157  00000+0  64556-4 0  9990
2 27386  98.3717  15.6191 0001346  84.9534 290.4970 14.39033896258195
IDEFIX & ARIANE 42P R/B 
1 27422U 02021B   26061.78353346  .00000343  00000+0  14692-3 0  9990
2 27422  98.5864   0.4726 0011181 203.1585 156.9095 14.31020279243030
AQUA                    
1 27424U 02022A   26062.18158764  .00001234  00000+0  25624-3 0  9992
2 27424  98.4163  29.4285 0000683  58.4731 357.1810 14.61957361267785
CZ-4B R/B               
1 27432U 02024C   26062.13256429  .00000055  00000+0  50918-4 0  9990
2 27432  98.8853 115.5719 0050770  42.6370 336.7091 14.14546187228317
MIDORI II (ADEOS-II)    
1 27597U 02056A   26061.87322174  .00000346  00000+0  15385-3 0  9999
2 27597  98.7758  20.3043 0001828  52.5235 307.6112 14.29278655209324
H-2A R/B                
1 27601U 02056E   26061.86697096  .00000306  00000+0  12189-3 0  9997
2 27601  98.3190  22.4928 0070074 180.9596 233.8258 14.33755244213130
CZ-4B R/B               
1 28059U 03049C   26061.98809774  .00000498  00000+0  12588-3 0  9994
2 28059  98.6872  56.6302 0047045 251.7963 107.8108 14.55012299185626
CZ-2C R/B               
1 28222U 04012C   26062.14730752  .00059078  00000+0  63130-3 0  9992
2 28222  97.7247 126.8234 0013304 336.0543  24.0094 15.63617877203257
SL-16 R/B               
1 28353U 04021B   26061.95146317 -.00000103  00000+0 -28718-4 0  9994
2 28353  70.9992 246.6340 0003693  23.2167 336.9122 14.14599719121882
CZ-4B R/B               
1 28415U 04035C   26062.10301204  .00010152  00000+0  35853-3 0  9994
2 28415  97.3507  96.4247 0031819 355.3873   4.7069 15.28920351178908
CZ-2C R/B               
1 28480U 04046B   26061.75414836  .00000156  00000+0  72804-4 0  9995
2 28480  98.1988 337.1695 0139467 174.9003 185.3638 14.26989516107514
ARIANE 5 R/B            
1 28499U 04049H   26062.03055252  .00000943  00000+0  11023-3 0  9992
2 28499  98.2616 230.2387 0084424  13.4959 346.8485 14.85250746144801
